C/2024 G5 (Leonard),e,50.3870,316.3950,209.5724,560.6271,0.0000742,0.99473281,0.0000,09/07.0310/2024,2000,g 13.0,4.0
# From MPEC 2024-RQ6
C/2024 G6 (ATLAS),h,02/20.8271/2026,120.4570,250.9519,23.4481,1.002285,6.429499,2000,5.5,4.0
# From MPEC 2024-Q20
C/2024 G7 (ATLAS),h,02/10.1432/2025,131.5169,191.9583,289.6570,1.001925,6.027713,2000,7.0,4.0
# From MPEC 2024-Q05
A/2024 G8,e,97.4097,11.2481,249.1582,142.1840,0.0005813,0.99175400,0.0000,06/15.5933/2024,2000,g 20.0,2.0
# From MPEC 2024-JU4
P/2024 J1 (PANSTARRS),e,13.1586,321.9415,200.3549,3.808438,0.1326123,0.30766946,64.1510,03/09.0/2025,2000,g 14.5,4.0
# From MPEC 2025-DP4
C/2024 J2 (Wierzchos),e,79.2971,189.0592,143.1591,147.1588,0.0005521,0.98769433,0.0000,03/19.7826/2025,2000,g 11.5,4.0
# From MPEC 2025-EB9
C/2024 J3 (ATLAS),h,11/25.2915/2026,75.6389,285.9613,74.0901,1.000872,3.864926,2000,5.0,4.0
# From MPEC 2025-EB9
C/2024 J4 (Lemmon),e,117.5322,19.3026,127.8569,6342,0.0000020,0.99910198,0.0000,04/26.0071/2025,2000,g  8.0,4.0
# From MPEC 2024-LB4
P/2024 K1 (PANSTARRS),e,1.7862,251.6913,351.9355,6.845256,0.0550325,0.49516920,16.7306,03/09.0/2025,2000,g 13.5,4.0
# From MPEC 2024-RQ6
C/2024 L1 (PANSTARRS),e,99.1674,45.1406,171.8102,11.46324,0.0253947,0.53347214,358.8497,03/09.0/2025,2000,g 10.0,4.0
# From MPEC 2024-P23
C/2024 L2 (PANSTARRS),e,139.4880,266.2856,345.6282,469.9068,0.0000968,0.98228105,0.0000,06/12.9875/2025,2000,g  7.5,3.2
# From MPEC 2024-RQ6
C/2024 L3 (PANSTARRS),h,11/24.2821/2023,111.5925,294.9928,59.0824,1.004188,6.858077,2000,9.5,4.0
# From MPEC 2025-DN8
P/2024 L4 (Rankin),e,10.0469,139.7787,53.6980,2.228219,0.2963244,0.69842371,97.4027,03/09.0/2025,2000,g 21.5,4.0
# From MPEC 2025-EB9
C/2024 L5 (ATLAS),h,03/10.3952/2025,166.5732,139.1762,290.5137,1.037296,3.432415,2000,9.0,4.0
# From MPEC 2025-EB9
C/2024 M1 (ATLAS),e,73.7098,76.2150,345.5920,29.88457,0.0060330,0.94300369,0.6575,03/09.0/2025,2000,g 12.0,4.0
# From MPEC 2024-RQ6
C/2024 N1 (PANSTARRS),h,10/18.8909/2025,88.7761,323.0158,91.2538,1.000871,4.398136,2000,10.5,4.0
# From MPEC 2025-EB9
C/2024 N3 (Sarneczky),h,04/11.3986/2025,88.7288,82.6080,86.8803,1.001180,5.014572,2000,8.0,4.0
# From MPEC 2025-EB9
C/2024 N4 (Sarneczky),h,01/10.0558/2025,49.7718,339.6612,116.6876,1.004507,5.397632,2000,7.5,4.0
# From MPEC 2024-PC5
C/2024 O1 (PANSTARRS),h,01/28.7203/2023,59.0776,303.3397,349.9031,1.000876,6.607442,2000,8.5,4.0
# From MPEC 2024-UA9
P/2024 O2 (PANSTARRS),e,28.9759,6.8054,310.7891,7.383724,0.0491237,0.49921640,15.8573,03/09.0/2025,2000,g 12.0,4.0
# From MPEC 2025-A40
P/2024 OC2 (PANSTARRS),e,7.6713,136.6173,258.5379,2.625651,0.2316587,0.77421173,34.9054,03/09.0/2025,2000,g 20.5,4.0
# From MPEC 2025-EB9
C/2024 PN7 (PANSTARRS),e,101.2100,358.5834,74.2742,67.35851,0.0017829,0.97736687,0.0000,12/06.4394/2024,2000,g 15.2,4.0
# From MPEC 2024-UQ8
P/2024 Q1 (PANSTARRS),e,5.0145,23.1356,284.4426,3.518711,0.1493237,0.53484478,39.9331,03/09.0/2025,2000,g 17.0,4.0
# From MPEC 2024-TD8
C/2024 Q3 (PANSTARRS),h,03/05.2334/2025,121.3769,337.2859,70.1319,1.001409,2.091471,2000,15.0,4.0
# From MPEC 2025-CE3
C/2024 Q4 (PANSTARRS),e,3.3127,324.2936,133.0207,859.6101,0.0000391,0.99369615,0.0000,11/12.1787/2024,2000,g 10.0,4.0
# From MPEC 2024-TP3
P/2024 R1 (PANSTARRS),e,12.7365,84.9818,230.6177,3.452062,0.1536690,0.49301148,40.9171,03/09.0/2025,2000,g 18.0,4.0
# From MPEC 2025-CE3
P/2024 R2 (PANSTARRS),e,15.1162,193.0402,203.9708,3.149773,0.1763134,0.26863825,27.8750,03/09.0/2025,2000,g 15.5,4.0
# From MPEC 2024-YC7
P/2024 R3 (PANSTARRS),e,14.7265,33.2746,309.1897,3.199466,0.1722217,0.26692450,52.5205,03/09.0/2025,2000,g 15.0,4.0
# From MPEC 2024-YC7
C/2024 R4 (PANSTARRS),h,10/26.6135/2027,95.3563,345.9322,108.9838,1.002670,4.409656,2000,6.5,4.0
# From MPEC 2025-D44
C/2024 S1 (ATLAS),e,141.9305,347.2705,69.2647,87.46583,0.0012049,0.99990890,0.0000,10/28.4851/2024,2000,g 15.5,4.0
# From MPEC 2025-A40
P/2024 S2 (Rankin),e,7.5250,8.3469,49.1837,5.041307,0.0870742,0.59376996,15.1196,03/09.0/2025,2000,g 15.0,4.0
# From MPEC 2025-D44
P/2024 T1 (Rankin),e,17.6200,279.7102,164.8719,6.602622,0.0580938,0.65361764,9.2706,03/09.0/2025,2000,g 14.5,4.0
# From MPEC 2025-EB9
P/2024 T2 (Rankin),e,12.9288,113.0608,343.8296,6.174133,0.0642451,0.68055518,5.8245,03/09.0/2025,2000,g 16.0,4.0
# From MPEC 2025-CE3
C/2024 T3 (PANSTARRS),e,53.4839,74.8309,336.8904,84.06626,0.0012787,0.95579444,359.9920,03/09.0/2025,2000,g 11.5,4.0
# From MPEC 2025-CE3
C/2024 T5 (ATLAS),h,05/06.3151/2027,52.3871,100.6824,352.4243,1.002003,3.842731,2000,5.5,4.0
# From MPEC 2025-CE3
C/2024 U1 (PANSTARRS),e,128.7544,270.2631,188.0776,513.8670,0.0000846,0.99058908,0.0000,06/30.4631/2024,2000,g 10.0,4.0
# From MPEC 2024-YO4
A/2024 U2,e,120.6202,56.0642,29.9251,17287,0.0000004,0.99952722,0.0000,01/17.0685/2026,2000,g 12.1,2.0
# From MPEC 2025-EB9
C/2024 V1 (Borisov),e,54.6238,328.1949,168.6644,234.9612,0.0002737,0.99013252,0.0000,04/04.1047/2025,2000,g 14.8,4.0
# From MPEC 2024-YC7
C/2024 V2 (Sarneczky),e,95.9718,102.2018,13.7186,39.27133,0.0040049,0.96834914,0.5013,03/09.0/2025,2000,g 19.0,4.0
# From MPEC 2025-CE3
C/2024 W1 (PANSTARRS),e,83.2004,310.7277,256.7352,44.83025,0.0032836,0.94287989,359.9669,03/09.0/2025,2000,g 15.0,4.0
# From MPEC 2025-CE3
A/2024 W2,h,02/27.4977/2025,116.6336,241.9378,168.0172,1.003072,3.720731,2000,15.0,2.0
# From MPEC 2025-CE3
C/2024 X1 (Fazekas),e,6.4573,352.1810,124.2212,9.519737,0.0335557,0.59912508,355.0448,03/09.0/2025,2000,g 11.3,4.0
# From MPEC 2025-EB9
C/2024 X2 (ATLAS),e,109.2211,122.5230,315.7738,50.54950,0.0027424,0.92727191,359.6686,03/09.0/2025,2000,g  9.6,4.0
# From MPEC 2025-EB9
P/2024 X3 (PANSTARRS),e,2.9724,113.3650,352.9336,6.997040,0.0532516,0.62640749,9.8113,03/09.0/2025,2000,g 14.6,4.0
# From MPEC 2025-A40
C/2024 X4 (PANSTARRS),e,34.6689,258.9436,153.2850,10.05654,0.0309052,0.64154398,354.5332,03/09.0/2025,2000,g 12.6,4.0
# From MPEC 2025-CE3
C/2024 Y1 (Masek),e,64.7511,112.5449,238.1407,61.77463,0.0020300,0.98668782,0.0000,11/26.8593/2024,2000,g 17.6,4.0
# From MPEC 2025-CE3
A/2025 A1,h,03/12.1145/2027,33.4349,101.3294,68.0247,1.004013,5.344872,2000,9.0,4.0
# From MPEC 2025-DP4
P/2025 A2 (PANSTARRS),e,20.7333,189.3212,278.0600,5.085155,0.0859504,0.32225844,13.2572,03/09.0/2025,2000,g 13.2,4.0
# From MPEC 2025-EB9
C/2025 A3 (Tsuchinshan),e,9.9752,322.4320,222.1927,10.18747,0.0303113,0.43125059,348.7915,03/09.0/2025,2000,g  9.0,4.0
# From MPEC 2025-EB9
C/2025 A4 (PANSTARRS),e,32.0262,69.9069,102.8278,11.03902,0.0268725,0.65358554,1.4698,03/09.0/2025,2000,g 12.4,4.0
# From MPEC 2025-DP4
C/2025 A6 (Lemmon),e,143.6393,108.0970,132.9852,125.3006,0.0007027,0.99577512,0.0000,11/08.4939/2025,2000,g 13.2,4.0
# From MPEC 2025-EB9
A/2025 A7,e,133.6488,348.8437,195.5618,4058,0.0000038,0.99928942,0.0000,03/28.0903/2025,2000,g 14.0,2.0
# From MPEC 2025-D44
C/2025 B1 (PANSTARRS),h,06/26.8541/2025,39.6531,102.8452,23.5656,1.002271,3.529139,2000,12.0,4.0
# From MPEC 2025-DP4
C/2025 B2 (Borisov),h,09/11.5836/2026,91.7419,84.8637,78.8430,1.000731,8.239049,2000,6.2,4.0
# From MPEC 2025-EB9
P/2025 C1 (ATLAS),e,7.5218,9.1085,187.2662,4.179825,0.1153366,0.34301458,3.2944,03/09.0/2025,2000,g 10.8,4.0
# From MPEC 2025-DP4
C/2025 D1 (Groeller),h,05/19.5732/2028,84.4694,312.8965,185.8793,1.002920,14.119655,2000,1.2,4.0
# From MPEC 2025-EB9
P/2025 D2 (PANSTARRS),e,5.3344,256.7334,314.0690,8.919653,0.0369983,0.17853175,310.5010,03/09.0/2025,2000,g  8.2,4.0
# From MPEC 2025-DL1
P/2025 D3 (PANSTARRS),e,9.6470,186.6297,294.5730,3.964527,0.1248582,0.25167263,28.2102,03/09.0/2025,2000,g 14.7,4.0
# From MPEC 2025-EB9
P/2025 D4 (ATLAS),e,15.9410,233.1196,332.8891,8.899379,0.0371248,0.63425216,0.8434,03/09.0/2025,2000,g 13.2,4.0
# From MPEC 2025-E99
C/2025 D5 (PANSTARRS),e,73.3579,0.7353,211.4918,827.6518,0.0000414,0.99756922,0.0000,05/13.3008/2025,2000,g 17.6,4.0
# From MPEC 2025-EB9
C/2025 E1 (PANSTARRS),e,69.0736,344.6006,274.4619,2787,0.0000067,0.99856693,0.0000,09/23.4622/2026,2000,g  9.7,4.0
# From  98, 1083
1P/Halley,e,162.2109,59.6655,112.5757,17.86475,0.0130529,0.96727410,186.0434,03/09.0/2025,2000,g  4.0,6.0
# From MPEC 2024-TP3
2P/Encke,e,11.3431,334.0142,187.2799,2.218213,0.2983316,0.84708266,150.1907,03/09.0/2025,2000,g 11.5,6.0
# From  76, 1135
3D/Biela,e,7.8877,276.1874,192.2957,3.539210,0.1480282,0.76754565,343.8353,03/09.0/2025,2000,g 11.0,6.0
# From  76, 1135
3D-A/Biela,e,7.2156,276.6834,192.1230,3.550280,0.1473364,0.76711543,14.2736,03/09.0/2025,2000,g 11.0,6.0
# From  76, 1135
3D-B/Biela,e,7.8798,276.2021,192.2569,3.539943,0.1479823,0.76784363,343.5627,03/09.0/2025,2000,g 11.0,6.0
# From MPEC 2023-FK0
4P/Faye,e,8.0042,192.9151,207.1351,3.829677,0.1315106,0.57643737,167.9267,03/09.0/2025,2000,g  8.0,6.0
# From  27, 116
5D/Brorsen,e,18.6310,94.9067,20.3009,3.158391,0.1755922,0.83785456,121.4601,03/09.0/2025,2000,g 10.5,6.0
# From MPEC 2022-WD2
6P/d'Arrest,e,19.4988,138.9506,178.0606,3.497705,0.1506709,0.61187200,191.2687,03/09.0/2025,2000,g  7.5,16.0
# From MPEC 2023-A50
7P/Pons-Winnecke,e,22.5432,93.2706,172.4427,3.398774,0.1572971,0.64335547,217.1232,03/09.0/2025,2000,g 10.0,6.0
# From MPEC 2022-HC2
8P/Tuttle,e,54.9847,270.1771,207.4731,5.705054,0.0723293,0.82066271,93.1998,03/09.0/2025,2000,g  8.0,8.0
# From MPEC 2024-YC7
9P/Tempel,e,10.7499,67.3975,184.3990,3.277126,0.1661362,0.47760100,184.1021,03/09.0/2025,2000,g  5.5,10.0
# From MPEC 2025-EB9
10P/Tempel,e,12.0275,117.8012,195.5004,3.063597,0.1838047,0.53737819,266.0438,03/09.0/2025,2000,g  5.0,10.0
# From MPEC 2024-R10
11P/Tempel-Swift-LINEAR,e,14.4338,238.8644,168.0469,3.283279,0.1656695,0.57749944,258.8057,03/09.0/2025,2000,g 17.0,4.0
# From MPEC 2025-DP4
12P/Pons-Brooks,e,74.1920,255.8554,199.0014,17.21737,0.0137960,0.95463932,4.4405,03/09.0/2025,2000,g  5.0,6.0
# From MPEC 2025-EB9
13P/Olbers,e,44.6666,85.8467,64.4202,16.89497,0.0141928,0.93042577,3.5757,03/09.0/2025,2000,g  5.0,6.0
# From MPEC 2024-LE0
14P/Wolf,e,27.9192,202.0279,159.1933,4.256578,0.1122311,0.35672530,297.2648,03/09.0/2025,2000,g  5.5,12.0
# From MPEC 2022-ED3
